{"type": "FeatureCollection", "features": [ {"type": "Feature", "properties": {"norad_id": 40664, "name": "SKY MEXICO-1", "group": "intelsat", "lat": 0.022702386264973114, "lon": 89.29059115116422, "alt_km": 35796.73677447299, "timestamp": "2025-12-12T05:47:28.439900+00:00", "meta": {"OBJECT_NAME": "SKY MEXICO-1", "OBJECT_ID": "2015-026B", "EPOCH": "2025-12-11T23:24:35.220960", "MEAN_MOTION": 1.00272425, "ECCENTRICITY": 0.00025713, "INCLINATION": 0.0344, "RA_OF_ASC_NODE": 76.486, "ARG_OF_PERICENTER": 199.0992, "MEAN_ANOMALY": 77.7231, "EPHEMERIS_TYPE": 0, "CLASSIFICATION_TYPE": "U", "NORAD_CAT_ID": 40664, "ELEMENT_SET_NO": 999, "REV_AT_EPOCH": 3857, "BSTAR": 0, "MEAN_MOTION_DOT": -2.26e-06, "MEAN_MOTION_DDOT": 0}, "tle": {"line1": "1 40664U 15026B   25345.97540765 -.00000226  00000+0  00000+0 0  9995", "line2": "2 40664   0.0344  76.4860 0002571 199.0992  77.7231  1.00272425 38571"}}, "geometry": {"type": "Point", "coordinates": [89.29059115116422, 0.022702386264973114]}}, {"type": "Feature", "properties": {"norad_id": 40874, "name": "INTELSAT 34 (IS-34)", "group": "intelsat", "lat": 0.019759417413287836, "lon": 112.54471334894497, "alt_km": 35785.161469752864, "timestamp": "2025-12-12T05:47:28.439911+00:00", "meta": {"OBJECT_NAME": "INTELSAT 34 (IS-34)", "OBJECT_ID": "2015-039A", "EPOCH": "2025-12-11T23:31:12.087264", "MEAN_MOTION": 1.00271493, "ECCENTRICITY": 4.138e-05, "INCLINATION": 0.0122, "RA_OF_ASC_NODE": 331.2537, "ARG_OF_PERICENTER": 194.7876, "MEAN_ANOMALY": 212.1872, "EPHEMERIS_TYPE": 0, "CLASSIFICATION_TYPE": "U", "NORAD_CAT_ID": 40874, "ELEMENT_SET_NO": 999, "REV_AT_EPOCH": 3774, "BSTAR": 0, "MEAN_MOTION_DOT": -2.77e-06, "MEAN_MOTION_DDOT": 0}, "tle": {"line1": "1 40874U 15039A   25345.98000101 -.00000277  00000+0  00000+0 0  9994", "line2": "2 40874   0.0122 331.2537 0000413 194.7876 212.1872  1.00271493 37745"}}, "geometry": {"type": "Point", "coordinates": [112.54471334894497, 0.019759417413287836]}}, {"type": "Feature", "properties": {"norad_id": 41581, "name": "INTELSAT 31 (IS-31)", "group": "intelsat", "lat": 0.016642732814084987, "lon": 72.98050254158065, "alt_km": 35792.72576979679, "timestamp": "2025-12-12T05:47:28.439923+00:00", "meta": {"OBJECT_NAME": "INTELSAT 31 (IS-31)", "OBJECT_ID": "2016-035A", "EPOCH": "2025-12-11T21:37:13.469376", "MEAN_MOTION": 1.00272085, "ECCENTRICITY": 0.0001989, "INCLINATION": 0.0172, "RA_OF_ASC_NODE": 268.6419, "ARG_OF_PERICENTER": 307.2662, "MEAN_ANOMALY": 94.1931, "EPHEMERIS_TYPE": 0, "CLASSIFICATION_TYPE": "U", "NORAD_CAT_ID": 41581, "ELEMENT_SET_NO": 999, "REV_AT_EPOCH": 3480, "BSTAR": 0, "MEAN_MOTION_DOT": -1.42e-06, "MEAN_MOTION_DDOT": 0}, "tle": {"line1": "1 41581U 16035A   25345.90085034 -.00000142  00000+0  00000+0 0  9998", "line2": "2 41581   0.0172 268.6419 0001989 307.2662  94.1931  1.00272085 34807"}}, "geometry": {"type": "Point", "coordinates": [72.98050254158065, 0.016642732814084987]}}, {"type": "Feature", "properties": {"norad_id": 41747, "name": "INTELSAT 36 (IS-36)", "group": "intelsat", "lat": -0.024568369248534432, "lon": -123.48323963982186, "alt_km": 35786.58941963226, "timestamp": "2025-12-12T05:47:28.439934+00:00", "meta": {"OBJECT_NAME": "INTELSAT 36 (IS-36)", "OBJECT_ID": "2016-053A", "EPOCH": "2025-12-11T19:58:55.649856", "MEAN_MOTION": 1.00270488, "ECCENTRICITY": 0.00016639, "INCLINATION": 0.0144, "RA_OF_ASC_NODE": 14.364, "ARG_OF_PERICENTER": 313.5424, "MEAN_ANOMALY": 121.097, "EPHEMERIS_TYPE": 0, "CLASSIFICATION_TYPE": "U", "NORAD_CAT_ID": 41747, "ELEMENT_SET_NO": 999, "REV_AT_EPOCH": 3407, "BSTAR": 0, "MEAN_MOTION_DOT": -1.6e-07, "MEAN_MOTION_DDOT": 0}, "tle": {"line1": "1 41747U 16053A   25345.83258854 -.00000016  00000+0  00000+0 0  9996", "line2": "2 41747   0.0144  14.3640 0001663 313.5424 121.0970  1.00270488 34074"}}, "geometry": {"type": "Point", "coordinates": [-123.48323963982186, -0.024568369248534432]}}, {"type": "Feature", "properties": {"norad_id": 41945, "name": "INTELSAT 32E (IS-32E)", "group": "intelsat", "lat": 0.030659773850613484, "lon": 124.86834740432646, "alt_km": 35787.8446433447, "timestamp": "2025-12-12T05:47:28.439946+00:00", "meta": {"OBJECT_NAME": "INTELSAT 32E (IS-32E)", "OBJECT_ID": "2017-007B", "EPOCH": "2025-12-11T23:34:41.752416", "MEAN_MOTION": 1.00269857, "ECCENTRICITY": 5.508e-05, "INCLINATION": 0.0364, "RA_OF_ASC_NODE": 82.8066, "ARG_OF_PERICENTER": 280.7424, "MEAN_ANOMALY": 27.8714, "EPHEMERIS_TYPE": 0, "CLASSIFICATION_TYPE": "U", "NORAD_CAT_ID": 41945, "ELEMENT_SET_NO": 999, "REV_AT_EPOCH": 3234, "BSTAR": 0, "MEAN_MOTION_DOT": -2.6e-06, "MEAN_MOTION_DDOT": 0}, "tle": {"line1": "1 41945U 17007B   25345.98242769 -.00000260  00000+0  00000+0 0  9991", "line2": "2 41945   0.0364  82.8066 0000550 280.7424  27.8714  1.00269857 32344"}}, "geometry": {"type": "Point", "coordinates": [124.86834740432646, 0.030659773850613484]}}, {"type": "Feature", "properties": {"norad_id": 42818, "name": "INTELSAT 35E (IS-35E)", "group": "intelsat", "lat": 0.022621909463989634, "lon": 133.5317185499931, "alt_km": 35791.003549538524, "timestamp": "2025-12-12T05:47:28.439958+00:00", "meta": {"OBJECT_NAME": "INTELSAT 35E (IS-35E)", "OBJECT_ID": "2017-041A", "EPOCH": "2025-12-11T23:37:11.512992", "MEAN_MOTION": 1.00273573, "ECCENTRICITY": 0.00020938, "INCLINATION": 0.0181, "RA_OF_ASC_NODE": 4.6845, "ARG_OF_PERICENTER": 256.4399, "MEAN_ANOMALY": 139.6061, "EPHEMERIS_TYPE": 0, "CLASSIFICATION_TYPE": "U", "NORAD_CAT_ID": 42818, "ELEMENT_SET_NO": 999, "REV_AT_EPOCH": 3093, "BSTAR": 0, "MEAN_MOTION_DOT": -2.29e-06, "MEAN_MOTION_DDOT": 0}, "tle": {"line1": "1 42818U 17041A   25345.98416103 -.00000229  00000+0  00000+0 0  9999", "line2": "2 42818   0.0181   4.6845 0002093 256.4399 139.6061  1.00273573 30933"}}, "geometry": {"type": "Point", "coordinates": [133.5317185499931, 0.022621909463989634]}}, {"type": "Feature", "properties": {"norad_id": 42950, "name": "INTELSAT 37E (IS-37E)", "group": "intelsat", "lat": 7.311454094844437e-05, "lon": 150.0230401035283, "alt_km": 35789.780776091386, "timestamp": "2025-12-12T05:47:28.439970+00:00", "meta": {"OBJECT_NAME": "INTELSAT 37E (IS-37E)", "OBJECT_ID": "2017-059A", "EPOCH": "2025-12-11T23:41:56.059296", "MEAN_MOTION": 1.0027224, "ECCENTRICITY": 0.00030792, "INCLINATION": 0.0019, "RA_OF_ASC_NODE": 81.2338, "ARG_OF_PERICENTER": 175.8183, "MEAN_ANOMALY": 161.3746, "EPHEMERIS_TYPE": 0, "CLASSIFICATION_TYPE": "U", "NORAD_CAT_ID": 42950, "ELEMENT_SET_NO": 999, "REV_AT_EPOCH": 3018, "BSTAR": 0, "MEAN_MOTION_DOT": -1.32e-06, "MEAN_MOTION_DDOT": 0}, "tle": {"line1": "1 42950U 17059A   25345.98745439 -.00000132  00000+0  00000+0 0  9995", "line2": "2 42950   0.0019  81.2338 0003079 175.8183 161.3746  1.00272240 30187"}}, "geometry": {"type": "Point", "coordinates": [150.0230401035283, 7.311454094844437e-05]}}, {"type": "Feature", "properties": {"norad_id": 43632, "name": "AZERSPACE 2 (IS-38)", "group": "intelsat", "lat": -0.023366299306625347, "lon": -146.8538402763076, "alt_km": 35782.40259207856, "timestamp": "2025-12-12T05:47:28.439981+00:00", "meta": {"OBJECT_NAME": "AZERSPACE 2 (IS-38)", "OBJECT_ID": "2018-074A", "EPOCH": "2025-12-11T06:30:38.803680", "MEAN_MOTION": 1.00271658, "ECCENTRICITY": 0.00014523, "INCLINATION": 0.0184, "RA_OF_ASC_NODE": 0.4784, "ARG_OF_PERICENTER": 266.8936, "MEAN_ANOMALY": 315.6295, "EPHEMERIS_TYPE": 0, "CLASSIFICATION_TYPE": "U", "NORAD_CAT_ID": 43632, "ELEMENT_SET_NO": 999, "REV_AT_EPOCH": 2656, "BSTAR": 0, "MEAN_MOTION_DOT": 1.43e-06, "MEAN_MOTION_DDOT": 0}, "tle": {"line1": "1 43632U 18074A   25345.27128245  .00000143  00000+0  00000+0 0  9994", "line2": "2 43632   0.0184   0.4784 0001452 266.8936 315.6295  1.00271658 26568"}}, "geometry": {"type": "Point", "coordinates": [-146.8538402763076, -0.023366299306625347]}}, {"type": "Feature", "properties": {"norad_id": 43633, "name": "HORIZONS-3E", "group": "intelsat", "lat": 0.023476216047998103, "lon": -22.938562685311023, "alt_km": 35784.61453389787, "timestamp": "2025-12-12T05:47:28.439993+00:00", "meta": {"OBJECT_NAME": "HORIZONS-3E", "OBJECT_ID": "2018-074B", "EPOCH": "2025-12-11T19:27:03.434688", "MEAN_MOTION": 1.00268276, "ECCENTRICITY": 0.0001075, "INCLINATION": 0.0429, "RA_OF_ASC_NODE": 180.5458, "ARG_OF_PERICENTER": 99.0829, "MEAN_ANOMALY": 261.9041, "EPHEMERIS_TYPE": 0, "CLASSIFICATION_TYPE": "U", "NORAD_CAT_ID": 43633, "ELEMENT_SET_NO": 999, "REV_AT_EPOCH": 2646, "BSTAR": 0, "MEAN_MOTION_DOT": -2.3e-07, "MEAN_MOTION_DDOT": 0}, "tle": {"line1": "1 43633U 18074B   25345.81045642 -.00000023  00000+0  00000+0 0  9992", "line2": "2 43633   0.0429 180.5458 0001075  99.0829 261.9041  1.00268276 26460"}}, "geometry": {"type": "Point", "coordinates": [-22.938562685311023, 0.023476216047998103]}}, {"type": "Feature", "properties": {"norad_id": 44333, "name": "AT&T T-16", "group": "intelsat", "lat": 0.012791875501515497, "lon": 67.17512344933196, "alt_km": 35786.25629497907, "timestamp": "2025-12-12T05:47:28.440004+00:00", "meta": {"OBJECT_NAME": "AT&T T-16", "OBJECT_ID": "2019-034A", "EPOCH": "2025-12-11T21:35:28.635936", "MEAN_MOTION": 1.0027134, "ECCENTRICITY": 7.803e-05, "INCLINATION": 0.0303, "RA_OF_ASC_NODE": 77.076, "ARG_OF_PERICENTER": 80.9177, "MEAN_ANOMALY": 145.8602, "EPHEMERIS_TYPE": 0, "CLASSIFICATION_TYPE": "U", "NORAD_CAT_ID": 44333, "ELEMENT_SET_NO": 999, "REV_AT_EPOCH": 2375, "BSTAR": 0, "MEAN_MOTION_DOT": -1.07e-06, "MEAN_MOTION_DDOT": 0}, "tle": {"line1": "1 44333U 19034A   25345.89963699 -.00000107  00000+0  00000+0 0  9999", "line2": "2 44333   0.0303  77.0760 0000780  80.9177 145.8602  1.00271340 23750"}}, "geometry": {"type": "Point", "coordinates": [67.17512344933196, 0.012791875501515497]}}]}